CCSDS_OMM_VERS = 2.0
CREATION_DATE  = 
ORIGINATOR     = 

OBJECT_NAME    = TITAN 4B R/B
OBJECT_ID      = 2000-047B
CENTER_NAME    = EARTH
REF_FRAME      = TEME
TIME_SYSTEM    = UTC
MEAN_ELEMENT_THEORY = SGP/SGP4

EPOCH          = 2025-10-31T15:23:00.996864
MEAN_MOTION    = 15.08312193
ECCENTRICITY   = .0043174
INCLINATION    = 67.9911
RA_OF_ASC_NODE = 43.0484
ARG_OF_PERICENTER = 193.0516
MEAN_ANOMALY   = 166.9520

EPHEMERIS_TYPE = 0
CLASSIFICATION_TYPE = U
NORAD_CAT_ID   = 26474
ELEMENT_SET_NO = 999
REV_AT_EPOCH   = 37344
BSTAR          = .39411E-3
MEAN_MOTION_DOT = .6132E-4
MEAN_MOTION_DDOT = 0

CCSDS_OMM_VERS = 2.0
CREATION_DATE  = 
ORIGINATOR     = 

OBJECT_NAME    = ENVISAT
OBJECT_ID      = 2002-009A
CENTER_NAME    = EARTH
REF_FRAME      = TEME
TIME_SYSTEM    = UTC
MEAN_ELEMENT_THEORY = SGP/SGP4

EPOCH          = 2025-10-31T15:37:01.133184
MEAN_MOTION    = 14.38975297
ECCENTRICITY   = .0001355
INCLINATION    = 98.3527
RA_OF_ASC_NODE = 256.4736
ARG_OF_PERICENTER = 84.8128
MEAN_ANOMALY   = 88.2899

EPHEMERIS_TYPE = 0
CLASSIFICATION_TYPE = U
NORAD_CAT_ID   = 27386
ELEMENT_SET_NO = 999
REV_AT_EPOCH   = 24061
BSTAR          = .7972E-4
MEAN_MOTION_DOT = .203E-5
MEAN_MOTION_DDOT = 0

CCSDS_OMM_VERS = 2.0
CREATION_DATE  = 
ORIGINATOR     = 

OBJECT_NAME    = IDEFIX & ARIANE 42P R/B
OBJECT_ID      = 2002-021B
CENTER_NAME    = EARTH
REF_FRAME      = TEME
TIME_SYSTEM    = UTC
MEAN_ELEMENT_THEORY = SGP/SGP4

EPOCH          = 2025-10-31T13:24:09.696384
MEAN_MOTION    = 14.30903100
ECCENTRICITY   = .0011166
INCLINATION    = 98.5717
RA_OF_ASC_NODE = 239.8118
ARG_OF_PERICENTER = 203.0363
MEAN_ANOMALY   = 157.0321

EPHEMERIS_TYPE = 0
CLASSIFICATION_TYPE = U
NORAD_CAT_ID   = 27422
ELEMENT_SET_NO = 999
REV_AT_EPOCH   = 22555
BSTAR          = .18254E-3
MEAN_MOTION_DOT = .436E-5
MEAN_MOTION_DDOT = 0

CCSDS_OMM_VERS = 2.0
CREATION_DATE  = 
ORIGINATOR     = 

OBJECT_NAME    = AQUA
OBJECT_ID      = 2002-022A
CENTER_NAME    = EARTH
REF_FRAME      = TEME
TIME_SYSTEM    = UTC
MEAN_ELEMENT_THEORY = SGP/SGP4

EPOCH          = 2025-10-31T16:20:29.847264
MEAN_MOTION    = 14.61655001
ECCENTRICITY   = .0001296
INCLINATION    = 98.3971
RA_OF_ASC_NODE = 264.8954
ARG_OF_PERICENTER = 49.9745
MEAN_ANOMALY   = 122.7568

EPHEMERIS_TYPE = 0
CLASSIFICATION_TYPE = U
NORAD_CAT_ID   = 27424
ELEMENT_SET_NO = 999
REV_AT_EPOCH   = 24988
BSTAR          = .33521E-3
MEAN_MOTION_DOT = .1619E-4
MEAN_MOTION_DDOT = 0

CCSDS_OMM_VERS = 2.0
CREATION_DATE  = 
ORIGINATOR     = 

OBJECT_NAME    = CZ-4B R/B
OBJECT_ID      = 2002-024C
CENTER_NAME    = EARTH
REF_FRAME      = TEME
TIME_SYSTEM    = UTC
MEAN_ELEMENT_THEORY = SGP/SGP4

EPOCH          = 2025-10-31T15:36:16.687296
MEAN_MOTION    = 14.14514904
ECCENTRICITY   = .0050639
INCLINATION    = 98.9066
RA_OF_ASC_NODE = 353.5554
ARG_OF_PERICENTER = 30.5342
MEAN_ANOMALY   = 137.6707

EPHEMERIS_TYPE = 0
CLASSIFICATION_TYPE = U
NORAD_CAT_ID   = 27432
ELEMENT_SET_NO = 999
REV_AT_EPOCH   = 21099
BSTAR          = .63026E-4
MEAN_MOTION_DOT = .78E-6
MEAN_MOTION_DDOT = 0

CCSDS_OMM_VERS = 2.0
CREATION_DATE  = 
ORIGINATOR     = 

OBJECT_NAME    = MIDORI II (ADEOS-II)
OBJECT_ID      = 2002-056A
CENTER_NAME    = EARTH
REF_FRAME      = TEME
TIME_SYSTEM    = UTC
MEAN_ELEMENT_THEORY = SGP/SGP4

EPOCH          = 2025-10-31T15:20:58.956864
MEAN_MOTION    = 14.29161275
ECCENTRICITY   = .0001811
INCLINATION    = 98.7564
RA_OF_ASC_NODE = 257.3907
ARG_OF_PERICENTER = 50.7153
MEAN_ANOMALY   = 309.4189

EPHEMERIS_TYPE = 0
CLASSIFICATION_TYPE = U
NORAD_CAT_ID   = 27597
ELEMENT_SET_NO = 999
REV_AT_EPOCH   = 19186
BSTAR          = .18469E-3
MEAN_MOTION_DOT = .424E-5
MEAN_MOTION_DDOT = 0

CCSDS_OMM_VERS = 2.0
CREATION_DATE  = 
ORIGINATOR     = 

OBJECT_NAME    = H-2A R/B
OBJECT_ID      = 2002-056E
CENTER_NAME    = EARTH
REF_FRAME      = TEME
TIME_SYSTEM    = UTC
MEAN_ELEMENT_THEORY = SGP/SGP4

EPOCH          = 2025-10-31T16:30:03.956256
MEAN_MOTION    = 14.33630818
ECCENTRICITY   = .007008
INCLINATION    = 98.2997
RA_OF_ASC_NODE = 265.1339
ARG_OF_PERICENTER = 185.0427
MEAN_ANOMALY   = 348.4358

EPHEMERIS_TYPE = 0
CLASSIFICATION_TYPE = U
NORAD_CAT_ID   = 27601
ELEMENT_SET_NO = 999
REV_AT_EPOCH   = 19562
BSTAR          = .15795E-3
MEAN_MOTION_DOT = .408E-5
MEAN_MOTION_DDOT = 0

CCSDS_OMM_VERS = 2.0
CREATION_DATE  = 
ORIGINATOR     = 

OBJECT_NAME    = CZ-4B R/B
OBJECT_ID      = 2003-049C
CENTER_NAME    = EARTH
REF_FRAME      = TEME
TIME_SYSTEM    = UTC
MEAN_ELEMENT_THEORY = SGP/SGP4

EPOCH          = 2025-10-31T13:47:06.407808
MEAN_MOTION    = 14.54848700
ECCENTRICITY   = .0047075
INCLINATION    = 98.6758
RA_OF_ASC_NODE = 289.5521
ARG_OF_PERICENTER = 265.7735
MEAN_ANOMALY   = 93.8080

EPHEMERIS_TYPE = 0
CLASSIFICATION_TYPE = U
NORAD_CAT_ID   = 28059
ELEMENT_SET_NO = 999
REV_AT_EPOCH   = 16782
BSTAR          = .15804E-3
MEAN_MOTION_DOT = .636E-5
MEAN_MOTION_DDOT = 0

CCSDS_OMM_VERS = 2.0
CREATION_DATE  = 
ORIGINATOR     = 

OBJECT_NAME    = CZ-2C R/B
OBJECT_ID      = 2004-012C
CENTER_NAME    = EARTH
REF_FRAME      = TEME
TIME_SYSTEM    = UTC
MEAN_ELEMENT_THEORY = SGP/SGP4

EPOCH          = 2025-10-31T14:47:54.367872
MEAN_MOTION    = 15.51817018
ECCENTRICITY   = .0020634
INCLINATION    = 97.7504
RA_OF_ASC_NODE = 353.8681
ARG_OF_PERICENTER = 66.8665
MEAN_ANOMALY   = 293.4758

EPHEMERIS_TYPE = 0
CLASSIFICATION_TYPE = U
NORAD_CAT_ID   = 28222
ELEMENT_SET_NO = 999
REV_AT_EPOCH   = 18418
BSTAR          = .67589E-3
MEAN_MOTION_DOT = .40799E-3
MEAN_MOTION_DDOT = 0

CCSDS_OMM_VERS = 2.0
CREATION_DATE  = 
ORIGINATOR     = 

OBJECT_NAME    = SL-16 R/B
OBJECT_ID      = 2004-021B
CENTER_NAME    = EARTH
REF_FRAME      = TEME
TIME_SYSTEM    = UTC
MEAN_ELEMENT_THEORY = SGP/SGP4

EPOCH          = 2025-10-31T14:49:24.084768
MEAN_MOTION    = 14.14570308
ECCENTRICITY   = .0007122
INCLINATION    = 70.9978
RA_OF_ASC_NODE = 143.3592
ARG_OF_PERICENTER = 245.8244
MEAN_ANOMALY   = 114.2134

EPHEMERIS_TYPE = 0
CLASSIFICATION_TYPE = U
NORAD_CAT_ID   = 28353
ELEMENT_SET_NO = 999
REV_AT_EPOCH   = 10458
BSTAR          = -.81725E-4
MEAN_MOTION_DOT = -.205E-5
MEAN_MOTION_DDOT = 0

CCSDS_OMM_VERS = 2.0
CREATION_DATE  = 
ORIGINATOR     = 

OBJECT_NAME    = CZ-4B R/B
OBJECT_ID      = 2004-035C
CENTER_NAME    = EARTH
REF_FRAME      = TEME
TIME_SYSTEM    = UTC
MEAN_ELEMENT_THEORY = SGP/SGP4

EPOCH          = 2025-10-31T14:51:26.919648
MEAN_MOTION    = 15.26400137
ECCENTRICITY   = .0035775
INCLINATION    = 97.3677
RA_OF_ASC_NODE = 335.5418
ARG_OF_PERICENTER = 67.3346
MEAN_ANOMALY   = 293.1669

EPHEMERIS_TYPE = 0
CLASSIFICATION_TYPE = U
NORAD_CAT_ID   = 28415
ELEMENT_SET_NO = 999
REV_AT_EPOCH   = 16020
BSTAR          = .41082E-3
MEAN_MOTION_DOT = .10822E-3
MEAN_MOTION_DDOT = 0

CCSDS_OMM_VERS = 2.0
CREATION_DATE  = 
ORIGINATOR     = 

OBJECT_NAME    = CZ-2C R/B
OBJECT_ID      = 2004-046B
CENTER_NAME    = EARTH
REF_FRAME      = TEME
TIME_SYSTEM    = UTC
MEAN_ELEMENT_THEORY = SGP/SGP4

EPOCH          = 2025-10-31T16:13:04.594368
MEAN_MOTION    = 14.26912805
ECCENTRICITY   = .0139552
INCLINATION    = 98.1946
RA_OF_ASC_NODE = 222.6772
ARG_OF_PERICENTER = 175.8946
MEAN_ANOMALY   = 184.3416

EPHEMERIS_TYPE = 0
CLASSIFICATION_TYPE = U
NORAD_CAT_ID   = 28480
ELEMENT_SET_NO = 999
REV_AT_EPOCH   = 9010
BSTAR          = .97025E-4
MEAN_MOTION_DOT = .221E-5
MEAN_MOTION_DDOT = 0

