TITAN 4B R/B            
1 26474U 00047B   25304.64098376  .00006132  00000+0  39411-3 0  9993
2 26474  67.9911  43.0484 0043174 193.0516 166.9520 15.08312193373448
ENVISAT                 
1 27386U 02009A   25304.65070756  .00000203  00000+0  79720-4 0  9990
2 27386  98.3527 256.4736 0001355  84.8128  88.2899 14.38975297240612
IDEFIX & ARIANE 42P R/B 
1 27422U 02021B   25304.55844556  .00000436  00000+0  18254-3 0  9993
2 27422  98.5717 239.8118 0011166 203.0363 157.0321 14.30903100225559
AQUA                    
1 27424U 02022A   25304.68090101  .00001619  00000+0  33521-3 0  9997
2 27424  98.3971 264.8954 0001296  49.9745 122.7568 14.61655001249883
CZ-4B R/B               
1 27432U 02024C   25304.65019314  .00000078  00000+0  63026-4 0  9994
2 27432  98.9066 353.5554 0050639  30.5342 137.6707 14.14514904210993
MIDORI II (ADEOS-II)    
1 27597U 02056A   25304.63957126  .00000424  00000+0  18469-3 0  9996
2 27597  98.7564 257.3907 0001811  50.7153 309.4189 14.29161275191863
H-2A R/B                
1 27601U 02056E   25304.68754579  .00000408  00000+0  15795-3 0  9995
2 27601  98.2997 265.1339 0070080 185.0427 348.4358 14.33630818195628
CZ-4B R/B               
1 28059U 03049C   25304.57437972  .00000636  00000+0  15804-3 0  9993
2 28059  98.6758 289.5521 0047075 265.7735  93.8080 14.54848700167822
CZ-2C R/B               
1 28222U 04012C   25304.61660148  .00040799  00000+0  67589-3 0  9995
2 28222  97.7504 353.8681 0020634  66.8665 293.4758 15.51817018184183
SL-16 R/B               
1 28353U 04021B   25304.61763987 -.00000205  00000+0 -81725-4 0  9994
2 28353  70.9978 143.3592 0007122 245.8244 114.2134 14.14570308104588
CZ-4B R/B               
1 28415U 04035C   25304.61906157  .00010822  00000+0  41082-3 0  9991
2 28415  97.3677 335.5418 0035775  67.3346 293.1669 15.26400137160200
CZ-2C R/B               
1 28480U 04046B   25304.67574762  .00000221  00000+0  97025-4 0  9995
2 28480  98.1946 222.6772 0139552 175.8946 184.3416 14.26912805 90109
